{"type": "FeatureCollection", "features": [ {"type": "Feature", "properties": {"norad_id": 40664, "name": "SKY MEXICO-1", "group": "intelsat", "lat": -0.018900337825348487, "lon": -39.381547997490415, "alt_km": 35778.00939642579, "timestamp": "2025-12-20T20:38:44.111766+00:00", "meta": {"OBJECT_NAME": "SKY MEXICO-1", "OBJECT_ID": "2015-026B", "EPOCH": "2025-12-20T12:05:09.617856", "MEAN_MOTION": 1.00271901, "ECCENTRICITY": 0.00023284, "INCLINATION": 0.0138, "RA_OF_ASC_NODE": 342.5656, "ARG_OF_PERICENTER": 303.1967, "MEAN_ANOMALY": 266.1047, "EPHEMERIS_TYPE": 0, "CLASSIFICATION_TYPE": "U", "NORAD_CAT_ID": 40664, "ELEMENT_SET_NO": 999, "REV_AT_EPOCH": 3866, "BSTAR": 0, "MEAN_MOTION_DOT": -2.11e-06, "MEAN_MOTION_DDOT": 0}, "tle": {"line1": "1 40664U 15026B   25354.50358354 -.00000211  00000+0  00000+0 0  9999", "line2": "2 40664   0.0138 342.5656 0002328 303.1967 266.1047  1.00271901 38669"}}, "geometry": {"type": "Point", "coordinates": [-39.381547997490415, -0.018900337825348487]}}, {"type": "Feature", "properties": {"norad_id": 40874, "name": "INTELSAT 34 (IS-34)", "group": "intelsat", "lat": 0.0005212224307259362, "lon": -16.136985360294588, "alt_km": 35789.462835901024, "timestamp": "2025-12-20T20:38:44.111777+00:00", "meta": {"OBJECT_NAME": "INTELSAT 34 (IS-34)", "OBJECT_ID": "2015-039A", "EPOCH": "2025-12-20T11:15:19.958400", "MEAN_MOTION": 1.00271747, "ECCENTRICITY": 7.994e-05, "INCLINATION": 0.0138, "RA_OF_ASC_NODE": 332.6184, "ARG_OF_PERICENTER": 183.5358, "MEAN_ANOMALY": 46.4832, "EPHEMERIS_TYPE": 0, "CLASSIFICATION_TYPE": "U", "NORAD_CAT_ID": 40874, "ELEMENT_SET_NO": 999, "REV_AT_EPOCH": 3783, "BSTAR": 0, "MEAN_MOTION_DOT": -2.62e-06, "MEAN_MOTION_DDOT": 0}, "tle": {"line1": "1 40874U 15039A   25354.46898100 -.00000262  00000+0  00000+0 0  9995", "line2": "2 40874   0.0138 332.6184 0000799 183.5358  46.4832  1.00271747 37839"}}, "geometry": {"type": "Point", "coordinates": [-16.136985360294588, 0.0005212224307259362]}}, {"type": "Feature", "properties": {"norad_id": 41581, "name": "INTELSAT 31 (IS-31)", "group": "intelsat", "lat": -0.0038770723128267385, "lon": -55.6551916588061, "alt_km": 35785.56615640511, "timestamp": "2025-12-20T20:38:44.111789+00:00", "meta": {"OBJECT_NAME": "INTELSAT 31 (IS-31)", "OBJECT_ID": "2016-035A", "EPOCH": "2025-12-20T12:34:47.372160", "MEAN_MOTION": 1.00275908, "ECCENTRICITY": 0.00019811, "INCLINATION": 0.0288, "RA_OF_ASC_NODE": 268.1426, "ARG_OF_PERICENTER": 301.6043, "MEAN_ANOMALY": 333.2619, "EPHEMERIS_TYPE": 0, "CLASSIFICATION_TYPE": "U", "NORAD_CAT_ID": 41581, "ELEMENT_SET_NO": 999, "REV_AT_EPOCH": 3489, "BSTAR": 0, "MEAN_MOTION_DOT": -1.28e-06, "MEAN_MOTION_DDOT": 0}, "tle": {"line1": "1 41581U 16035A   25354.52415940 -.00000128  00000+0  00000+0 0  9993", "line2": "2 41581   0.0288 268.1426 0001981 301.6043 333.2619  1.00275908 34897"}}, "geometry": {"type": "Point", "coordinates": [-55.6551916588061, -0.0038770723128267385]}}, {"type": "Feature", "properties": {"norad_id": 41747, "name": "INTELSAT 36 (IS-36)", "group": "intelsat", "lat": 0.03682285596028789, "lon": 107.86143409113774, "alt_km": 35789.6426045231, "timestamp": "2025-12-20T20:38:44.111800+00:00", "meta": {"OBJECT_NAME": "INTELSAT 36 (IS-36)", "OBJECT_ID": "2016-053A", "EPOCH": "2025-12-20T10:07:56.413344", "MEAN_MOTION": 1.00271763, "ECCENTRICITY": 0.0001172, "INCLINATION": 0.0107, "RA_OF_ASC_NODE": 8.1508, "ARG_OF_PERICENTER": 323.4554, "MEAN_ANOMALY": 338.1246, "EPHEMERIS_TYPE": 0, "CLASSIFICATION_TYPE": "U", "NORAD_CAT_ID": 41747, "ELEMENT_SET_NO": 999, "REV_AT_EPOCH": 3415, "BSTAR": 0, "MEAN_MOTION_DOT": -1e-08, "MEAN_MOTION_DDOT": 0}, "tle": {"line1": "1 41747U 16053A   25354.42218071 -.00000001  00000+0  00000+0 0  9992", "line2": "2 41747   0.0107   8.1508 0001172 323.4554 338.1246  1.00271763 34159"}}, "geometry": {"type": "Point", "coordinates": [107.86143409113774, 0.03682285596028789]}}, {"type": "Feature", "properties": {"norad_id": 41945, "name": "INTELSAT 32E (IS-32E)", "group": "intelsat", "lat": -0.02609253277402495, "lon": -3.8076387453374134, "alt_km": 35784.20730789587, "timestamp": "2025-12-20T20:38:44.111812+00:00", "meta": {"OBJECT_NAME": "INTELSAT 32E (IS-32E)", "OBJECT_ID": "2017-007B", "EPOCH": "2025-12-20T07:53:24.298080", "MEAN_MOTION": 1.00274334, "ECCENTRICITY": 3.536e-05, "INCLINATION": 0.0278, "RA_OF_ASC_NODE": 69.9783, "ARG_OF_PERICENTER": 320.6624, "MEAN_ANOMALY": 133.7019, "EPHEMERIS_TYPE": 0, "CLASSIFICATION_TYPE": "U", "NORAD_CAT_ID": 41945, "ELEMENT_SET_NO": 999, "REV_AT_EPOCH": 3243, "BSTAR": 0, "MEAN_MOTION_DOT": -2.45e-06, "MEAN_MOTION_DDOT": 0}, "tle": {"line1": "1 41945U 17007B   25354.32875345 -.00000245  00000+0  00000+0 0  9994", "line2": "2 41945   0.0278  69.9783 0000353 320.6624 133.7019  1.00274334 32438"}}, "geometry": {"type": "Point", "coordinates": [-3.8076387453374134, -0.02609253277402495]}}, {"type": "Feature", "properties": {"norad_id": 42818, "name": "INTELSAT 35E (IS-35E)", "group": "intelsat", "lat": -0.005374596542245231, "lon": 4.895681109820205, "alt_km": 35786.74111276208, "timestamp": "2025-12-20T20:38:44.111823+00:00", "meta": {"OBJECT_NAME": "INTELSAT 35E (IS-35E)", "OBJECT_ID": "2017-041A", "EPOCH": "2025-12-20T10:47:38.508864", "MEAN_MOTION": 1.00271067, "ECCENTRICITY": 0.00018459, "INCLINATION": 0.018, "RA_OF_ASC_NODE": 20.8417, "ARG_OF_PERICENTER": 250.9916, "MEAN_ANOMALY": 304.8735, "EPHEMERIS_TYPE": 0, "CLASSIFICATION_TYPE": "U", "NORAD_CAT_ID": 42818, "ELEMENT_SET_NO": 999, "REV_AT_EPOCH": 3102, "BSTAR": 0, "MEAN_MOTION_DOT": -2.14e-06, "MEAN_MOTION_DDOT": 0}, "tle": {"line1": "1 42818U 17041A   25354.44975126 -.00000214  00000+0  00000+0 0  9999", "line2": "2 42818   0.0180  20.8417 0001845 250.9916 304.8735  1.00271067 31026"}}, "geometry": {"type": "Point", "coordinates": [4.895681109820205, -0.005374596542245231]}}, {"type": "Feature", "properties": {"norad_id": 42950, "name": "INTELSAT 37E (IS-37E)", "group": "intelsat", "lat": 0.007793856755076792, "lon": 21.38439857749266, "alt_km": 35793.1187457677, "timestamp": "2025-12-20T20:38:44.111835+00:00", "meta": {"OBJECT_NAME": "INTELSAT 37E (IS-37E)", "OBJECT_ID": "2017-059A", "EPOCH": "2025-12-20T10:31:38.599680", "MEAN_MOTION": 1.00270843, "ECCENTRICITY": 0.00029501, "INCLINATION": 0.0188, "RA_OF_ASC_NODE": 19.6627, "ARG_OF_PERICENTER": 238.8666, "MEAN_ANOMALY": 330.6486, "EPHEMERIS_TYPE": 0, "CLASSIFICATION_TYPE": "U", "NORAD_CAT_ID": 42950, "ELEMENT_SET_NO": 999, "REV_AT_EPOCH": 3027, "BSTAR": 0, "MEAN_MOTION_DOT": -1.17e-06, "MEAN_MOTION_DDOT": 0}, "tle": {"line1": "1 42950U 17059A   25354.43864120 -.00000117  00000+0  00000+0 0  9997", "line2": "2 42950   0.0188  19.6627 0002950 238.8666 330.6486  1.00270843 30272"}}, "geometry": {"type": "Point", "coordinates": [21.38439857749266, 0.007793856755076792]}}, {"type": "Feature", "properties": {"norad_id": 43632, "name": "AZERSPACE 2 (IS-38)", "group": "intelsat", "lat": 0.025763538418637495, "lon": 84.47803596645954, "alt_km": 35791.14643324742, "timestamp": "2025-12-20T20:38:44.111847+00:00", "meta": {"OBJECT_NAME": "AZERSPACE 2 (IS-38)", "OBJECT_ID": "2018-074A", "EPOCH": "2025-12-20T04:53:04.070112", "MEAN_MOTION": 1.00270817, "ECCENTRICITY": 0.0001162, "INCLINATION": 0.0082, "RA_OF_ASC_NODE": 42.9819, "ARG_OF_PERICENTER": 229.623, "MEAN_ANOMALY": 294.8181, "EPHEMERIS_TYPE": 0, "CLASSIFICATION_TYPE": "U", "NORAD_CAT_ID": 43632, "ELEMENT_SET_NO": 999, "REV_AT_EPOCH": 2665, "BSTAR": 0, "MEAN_MOTION_DOT": 1.6e-06, "MEAN_MOTION_DDOT": 0}, "tle": {"line1": "1 43632U 18074A   25354.20351933  .00000160  00000+0  00000+0 0  9998", "line2": "2 43632   0.0082  42.9819 0001162 229.6230 294.8181  1.00270817 26655"}}, "geometry": {"type": "Point", "coordinates": [84.47803596645954, 0.025763538418637495]}}, {"type": "Feature", "properties": {"norad_id": 43633, "name": "HORIZONS-3E", "group": "intelsat", "lat": 0.002387905829486631, "lon": -151.67858201588734, "alt_km": 35788.78419605643, "timestamp": "2025-12-20T20:38:44.111858+00:00", "meta": {"OBJECT_NAME": "HORIZONS-3E", "OBJECT_ID": "2018-074B", "EPOCH": "2025-12-20T11:32:38.877792", "MEAN_MOTION": 1.00267376, "ECCENTRICITY": 9.046e-05, "INCLINATION": 0.0089, "RA_OF_ASC_NODE": 234.5772, "ARG_OF_PERICENTER": 86.8436, "MEAN_ANOMALY": 110.0297, "EPHEMERIS_TYPE": 0, "CLASSIFICATION_TYPE": "U", "NORAD_CAT_ID": 43633, "ELEMENT_SET_NO": 999, "REV_AT_EPOCH": 2654, "BSTAR": 0, "MEAN_MOTION_DOT": 0, "MEAN_MOTION_DDOT": 0}, "tle": {"line1": "1 43633U 18074B   25354.48100553  .00000000  00000+0  00000+0 0  9992", "line2": "2 43633   0.0089 234.5772 0000904  86.8436 110.0297  1.00267376 26545"}}, "geometry": {"type": "Point", "coordinates": [-151.67858201588734, 0.002387905829486631]}}, {"type": "Feature", "properties": {"norad_id": 44333, "name": "AT&T T-16", "group": "intelsat", "lat": -0.036412807588075025, "lon": -61.48593026039543, "alt_km": 35789.68785485643, "timestamp": "2025-12-20T20:38:44.111870+00:00", "meta": {"OBJECT_NAME": "AT&T T-16", "OBJECT_ID": "2019-034A", "EPOCH": "2025-12-20T05:59:17.333952", "MEAN_MOTION": 1.00272894, "ECCENTRICITY": 9.98e-05, "INCLINATION": 0.0237, "RA_OF_ASC_NODE": 62.8934, "ARG_OF_PERICENTER": 77.7615, "MEAN_ANOMALY": 297.398, "EPHEMERIS_TYPE": 0, "CLASSIFICATION_TYPE": "U", "NORAD_CAT_ID": 44333, "ELEMENT_SET_NO": 999, "REV_AT_EPOCH": 2383, "BSTAR": 0, "MEAN_MOTION_DOT": -9.2e-07, "MEAN_MOTION_DDOT": 0}, "tle": {"line1": "1 44333U 19034A   25354.24950618 -.00000092  00000+0  00000+0 0  9998", "line2": "2 44333   0.0237  62.8934 0000998  77.7615 297.3980  1.00272894 23839"}}, "geometry": {"type": "Point", "coordinates": [-61.48593026039543, -0.036412807588075025]}}]}